[{"OBJECT_NAME":"STARLINK-3611","OBJECT_ID":"2022-017M","EPOCH":"2026-03-09T22:09:57.337056","MEAN_MOTION":15.08840163,"ECCENTRICITY":0.000154,"INCLINATION":53.2195,"RA_OF_ASC_NODE":338.122,"ARG_OF_PERICENTER":104.4617,"MEAN_ANOMALY":255.6546,"EPHEMERIS_TYPE":0,"CLASSIFICATION_TYPE":"U","NORAD_CAT_ID":51779,"ELEMENT_SET_NO":999,"REV_AT_EPOCH":22260,"BSTAR":-1.240361e-6,"MEAN_MOTION_DOT":-3.08e-6,"MEAN_MOTION_DDOT":0},{"OBJECT_NAME":"JILIN-01 KUANFU 02B 4","OBJECT_ID":"2024-169D","EPOCH":"2026-03-09T23:04:43.463424","MEAN_MOTION":15.0922271,"ECCENTRICITY":0.00080501,"INCLINATION":97.5522,"RA_OF_ASC_NODE":159.355,"ARG_OF_PERICENTER":260.1533,"MEAN_ANOMALY":99.8787,"EPHEMERIS_TYPE":0,"CLASSIFICATION_TYPE":"U","NORAD_CAT_ID":61192,"ELEMENT_SET_NO":999,"REV_AT_EPOCH":8086,"BSTAR":0.00035789888,"MEAN_MOTION_DOT":5.634e-5,"MEAN_MOTION_DDOT":0}]
